[
  {
    "name": "",
    "friends": 1,
    "home_address": {
      "city": "ct",
      "zipcode": 0,
      "street": "st",
      "number": 0
    },
    "birth_place": {
      "city": "ct",
      "zipcode": 0,
      "street": "st",
      "number": 0
    },
    "birth": {
      "year": 0,
      "month": 0,
      "day": 0
    },
    "favorite_subjects": [
      {
        "id": 1,
        "title": "",
        "code": ""
      }
    ],
    "email_addresses": [
      "em addr"
    ],
    "schools": [
      {
        "name": "school",
        "address": {
          "city": "ct",
          "zipcode": 0,
          "street": "st",
          "number": 0
        },
        "foundation": {
          "year": 0,
          "month": 0,
          "day": 0
        },
        "email_addresses": [
          "em1",
          "em2",
          "em3"
        ]
      }
    ]
  },
  {
    "name": "",
    "friends": 1,
    "home_address": {
      "city": "ct",
      "zipcode": 0,
      "street": "st",
      "number": 0
    },
    "birth_place": {
      "city": "ct",
      "zipcode": 0,
      "street": "st",
      "number": 0
    },
    "birth": {
      "year": 0,
      "month": 0,
      "day": 0
    },
    "favorite_subjects": [
      {
        "id": 2,
        "title": "",
        "code": ""
      }
    ],
    "email_addresses": [
      "em addr"
    ],
    "schools": [
      {
        "name": "school",
        "address": {
          "city": "ct",
          "zipcode": 0,
          "street": "st",
          "number": 0
        },
        "foundation": {
          "year": 0,
          "month": 0,
          "day": 0
        },
        "email_addresses": [
          "em1",
          "em2",
          "em3"
        ]
      }
    ]
  },
  {
    "name": "",
    "friends": 1,
    "home_address": {
      "city": "ct",
      "zipcode": 0,
      "street": "st",
      "number": 0
    },
    "birth_place": {
      "city": "ct",
      "zipcode": 0,
      "street": "st",
      "number": 0
    },
    "birth": {
      "year": 0,
      "month": 0,
      "day": 0
    },
    "favorite_subjects": [
      {
        "id": 3,
        "title": "",
        "code": ""
      }
    ],
    "email_addresses": [
      "em addr"
    ],
    "schools": [
      {
        "name": "school",
        "address": {
          "city": "ct",
          "zipcode": 0,
          "street": "st",
          "number": 0
        },
        "foundation": {
          "year": 0,
          "month": 0,
          "day": 0
        },
        "email_addresses": [
          "em1",
          "em2",
          "em3"
        ]
      }
    ]
  },
  {
    "name": "",
    "friends": 1,
    "home_address": {
      "city": "ct",
      "zipcode": 0,
      "street": "st",
      "number": 0
    },
    "birth_place": {
      "city": "ct",
      "zipcode": 0,
      "street": "st",
      "number": 0
    },
    "birth": {
      "year": 0,
      "month": 0,
      "day": 0
    },
    "favorite_subjects": [
      {
        "id": 4,
        "title": "",
        "code": ""
      }
    ],
    "email_addresses": [
      "em addr"
    ],
    "schools": [
      {
        "name": "school",
        "address": {
          "city": "ct",
          "zipcode": 0,
          "street": "st",
          "number": 0
        },
        "foundation": {
          "year": 0,
          "month": 0,
          "day": 0
        },
        "email_addresses": [
          "em1",
          "em2",
          "em3"
        ]
      }
    ]
  },
  {
    "name": "",
    "friends": 1,
    "home_address": {
      "city": "ct",
      "zipcode": 0,
      "street": "st",
      "number": 0
    },
    "birth_place": {
      "city": "ct",
      "zipcode": 0,
      "street": "st",
      "number": 0
    },
    "birth": {
      "year": 0,
      "month": 0,
      "day": 0
    },
    "favorite_subjects": [
      {
        "id": 5,
        "title": "",
        "code": ""
      }
    ],
    "email_addresses": [
      "em addr"
    ],
    "schools": [
      {
        "name": "school",
        "address": {
          "city": "ct",
          "zipcode": 0,
          "street": "st",
          "number": 0
        },
        "foundation": {
          "year": 0,
          "month": 0,
          "day": 0
        },
        "email_addresses": [
          "em1",
          "em2",
          "em3"
        ]
      }
    ]
  },
  {
    "name": "",
    "friends": 1,
    "home_address": {
      "city": "ct",
      "zipcode": 0,
      "street": "st",
      "number": 0
    },
    "birth_place": {
      "city": "ct",
      "zipcode": 0,
      "street": "st",
      "number": 0
    },
    "birth": {
      "year": 0,
      "month": 0,
      "day": 0
    },
    "favorite_subjects": [
      {
        "id": 6,
        "title": "",
        "code": ""
      }
    ],
    "email_addresses": [
      "em addr"
    ],
    "schools": [
      {
        "name": "school",
        "address": {
          "city": "ct",
          "zipcode": 0,
          "street": "st",
          "number": 0
        },
        "foundation": {
          "year": 0,
          "month": 0,
          "day": 0
        },
        "email_addresses": [
          "em1",
          "em2",
          "em3"
        ]
      }
    ]
  },
  {
    "name": "",
    "friends": 1,
    "home_address": {
      "city": "ct",
      "zipcode": 0,
      "street": "st",
      "number": 0
    },
    "birth_place": {
      "city": "ct",
      "zipcode": 0,
      "street": "st",
      "number": 0
    },
    "birth": {
      "year": 0,
      "month": 0,
      "day": 0
    },
    "favorite_subjects": [
      {
        "id": 7,
        "title": "",
        "code": ""
      }
    ],
    "email_addresses": [
      "em addr"
    ],
    "schools": [
      {
        "name": "school",
        "address": {
          "city": "ct",
          "zipcode": 0,
          "street": "st",
          "number": 0
        },
        "foundation": {
          "year": 0,
          "month": 0,
          "day": 0
        },
        "email_addresses": [
          "em1",
          "em2",
          "em3"
        ]
      }
    ]
  },
  {
    "name": "",
    "friends": 1,
    "home_address": {
      "city": "ct",
      "zipcode": 0,
      "street": "st",
      "number": 0
    },
    "birth_place": {
      "city": "ct",
      "zipcode": 0,
      "street": "st",
      "number": 0
    },
    "birth": {
      "year": 0,
      "month": 0,
      "day": 0
    },
    "favorite_subjects": [
      {
        "id": 8,
        "title": "",
        "code": ""
      }
    ],
    "email_addresses": [
      "em addr"
    ],
    "schools": [
      {
        "name": "school",
        "address": {
          "city": "ct",
          "zipcode": 0,
          "street": "st",
          "number": 0
        },
        "foundation": {
          "year": 0,
          "month": 0,
          "day": 0
        },
        "email_addresses": [
          "em1",
          "em2",
          "em3"
        ]
      }
    ]
  },
  {
    "name": "",
    "friends": 1,
    "home_address": {
      "city": "ct",
      "zipcode": 0,
      "street": "st",
      "number": 0
    },
    "birth_place": {
      "city": "ct",
      "zipcode": 0,
      "street": "st",
      "number": 0
    },
    "birth": {
      "year": 0,
      "month": 0,
      "day": 0
    },
    "favorite_subjects": [
      {
        "id": 9,
        "title": "",
        "code": ""
      }
    ],
    "email_addresses": [
      "em addr"
    ],
    "schools": [
      {
        "name": "school",
        "address": {
          "city": "ct",
          "zipcode": 0,
          "street": "st",
          "number": 0
        },
        "foundation": {
          "year": 0,
          "month": 0,
          "day": 0
        },
        "email_addresses": [
          "em1",
          "em2",
          "em3"
        ]
      }
    ]
  },
  {
    "name": "",
    "friends": 1,
    "home_address": {
      "city": "ct",
      "zipcode": 0,
      "street": "st",
      "number": 0
    },
    "birth_place": {
      "city": "ct",
      "zipcode": 0,
      "street": "st",
      "number": 0
    },
    "birth": {
      "year": 0,
      "month": 0,
      "day": 0
    },
    "favorite_subjects": [
      {
        "id": 10,
        "title": "",
        "code": ""
      }
    ],
    "email_addresses": [
      "em addr"
    ],
    "schools": [
      {
        "name": "school",
        "address": {
          "city": "ct",
          "zipcode": 0,
          "street": "st",
          "number": 0
        },
        "foundation": {
          "year": 0,
          "month": 0,
          "day": 0
        },
        "email_addresses": [
          "em1",
          "em2",
          "em3"
        ]
      }
    ]
  },
  {
    "name": "",
    "friends": 1,
    "home_address": {
      "city": "ct",
      "zipcode": 0,
      "street": "st",
      "number": 0
    },
    "birth_place": {
      "city": "ct",
      "zipcode": 0,
      "street": "st",
      "number": 0
    },
    "birth": {
      "year": 0,
      "month": 0,
      "day": 0
    },
    "favorite_subjects": [
      {
        "id": 11,
        "title": "",
        "code": ""
      }
    ],
    "email_addresses": [
      "em addr"
    ],
    "schools": [
      {
        "name": "school",
        "address": {
          "city": "ct",
          "zipcode": 0,
          "street": "st",
          "number": 0
        },
        "foundation": {
          "year": 0,
          "month": 0,
          "day": 0
        },
        "email_addresses": [
          "em1",
          "em2",
          "em3"
        ]
      }
    ]
  },
  {
    "name": "",
    "friends": 1,
    "home_address": {
      "city": "ct",
      "zipcode": 0,
      "street": "st",
      "number": 0
    },
    "birth_place": {
      "city": "ct",
      "zipcode": 0,
      "street": "st",
      "number": 0
    },
    "birth": {
      "year": 0,
      "month": 0,
      "day": 0
    },
    "favorite_subjects": [
      {
        "id": 12,
        "title": "",
        "code": ""
      }
    ],
    "email_addresses": [
      "em addr"
    ],
    "schools": [
      {
        "name": "school",
        "address": {
          "city": "ct",
          "zipcode": 0,
          "street": "st",
          "number": 0
        },
        "foundation": {
          "year": 0,
          "month": 0,
          "day": 0
        },
        "email_addresses": [
          "em1",
          "em2",
          "em3"
        ]
      }
    ]
  },
  {
    "name": "",
    "friends": 1,
    "home_address": {
      "city": "ct",
      "zipcode": 0,
      "street": "st",
      "number": 0
    },
    "birth_place": {
      "city": "ct",
      "zipcode": 0,
      "street": "st",
      "number": 0
    },
    "birth": {
      "year": 0,
      "month": 0,
      "day": 0
    },
    "favorite_subjects": [
      {
        "id": 13,
        "title": "",
        "code": ""
      }
    ],
    "email_addresses": [
      "em addr"
    ],
    "schools": [
      {
        "name": "school",
        "address": {
          "city": "ct",
          "zipcode": 0,
          "street": "st",
          "number": 0
        },
        "foundation": {
          "year": 0,
          "month": 0,
          "day": 0
        },
        "email_addresses": [
          "em1",
          "em2",
          "em3"
        ]
      }
    ]
  },
  {
    "name": "",
    "friends": 1,
    "home_address": {
      "city": "ct",
      "zipcode": 0,
      "street": "st",
      "number": 0
    },
    "birth_place": {
      "city": "ct",
      "zipcode": 0,
      "street": "st",
      "number": 0
    },
    "birth": {
      "year": 0,
      "month": 0,
      "day": 0
    },
    "favorite_subjects": [
      {
        "id": 14,
        "title": "",
        "code": ""
      }
    ],
    "email_addresses": [
      "em addr"
    ],
    "schools": [
      {
        "name": "school",
        "address": {
          "city": "ct",
          "zipcode": 0,
          "street": "st",
          "number": 0
        },
        "foundation": {
          "year": 0,
          "month": 0,
          "day": 0
        },
        "email_addresses": [
          "em1",
          "em2",
          "em3"
        ]
      }
    ]
  },
  {
    "name": "",
    "friends": 1,
    "home_address": {
      "city": "ct",
      "zipcode": 0,
      "street": "st",
      "number": 0
    },
    "birth_place": {
      "city": "ct",
      "zipcode": 0,
      "street": "st",
      "number": 0
    },
    "birth": {
      "year": 0,
      "month": 0,
      "day": 0
    },
    "favorite_subjects": [
      {
        "id": 15,
        "title": "",
        "code": ""
      }
    ],
    "email_addresses": [
      "em addr"
    ],
    "schools": [
      {
        "name": "school",
        "address": {
          "city": "ct",
          "zipcode": 0,
          "street": "st",
          "number": 0
        },
        "foundation": {
          "year": 0,
          "month": 0,
          "day": 0
        },
        "email_addresses": [
          "em1",
          "em2",
          "em3"
        ]
      }
    ]
  },
  {
    "name": "",
    "friends": 1,
    "home_address": {
      "city": "ct",
      "zipcode": 0,
      "street": "st",
      "number": 0
    },
    "birth_place": {
      "city": "ct",
      "zipcode": 0,
      "street": "st",
      "number": 0
    },
    "birth": {
      "year": 0,
      "month": 0,
      "day": 0
    },
    "favorite_subjects": [
      {
        "id": 16,
        "title": "",
        "code": ""
      }
    ],
    "email_addresses": [
      "em addr"
    ],
    "schools": [
      {
        "name": "school",
        "address": {
          "city": "ct",
          "zipcode": 0,
          "street": "st",
          "number": 0
        },
        "foundation": {
          "year": 0,
          "month": 0,
          "day": 0
        },
        "email_addresses": [
          "em1",
          "em2",
          "em3"
        ]
      }
    ]
  },
  {
    "name": "",
    "friends": 1,
    "home_address": {
      "city": "ct",
      "zipcode": 0,
      "street": "st",
      "number": 0
    },
    "birth_place": {
      "city": "ct",
      "zipcode": 0,
      "street": "st",
      "number": 0
    },
    "birth": {
      "year": 0,
      "month": 0,
      "day": 0
    },
    "favorite_subjects": [
      {
        "id": 17,
        "title": "",
        "code": ""
      }
    ],
    "email_addresses": [
      "em addr"
    ],
    "schools": [
      {
        "name": "school",
        "address": {
          "city": "ct",
          "zipcode": 0,
          "street": "st",
          "number": 0
        },
        "foundation": {
          "year": 0,
          "month": 0,
          "day": 0
        },
        "email_addresses": [
          "em1",
          "em2",
          "em3"
        ]
      }
    ]
  },
  {
    "name": "",
    "friends": 1,
    "home_address": {
      "city": "ct",
      "zipcode": 0,
      "street": "st",
      "number": 0
    },
    "birth_place": {
      "city": "ct",
      "zipcode": 0,
      "street": "st",
      "number": 0
    },
    "birth": {
      "year": 0,
      "month": 0,
      "day": 0
    },
    "favorite_subjects": [
      {
        "id": 18,
        "title": "",
        "code": ""
      }
    ],
    "email_addresses": [
      "em addr"
    ],
    "schools": [
      {
        "name": "school",
        "address": {
          "city": "ct",
          "zipcode": 0,
          "street": "st",
          "number": 0
        },
        "foundation": {
          "year": 0,
          "month": 0,
          "day": 0
        },
        "email_addresses": [
          "em1",
          "em2",
          "em3"
        ]
      }
    ]
  },
  {
    "name": "",
    "friends": 1,
    "home_address": {
      "city": "ct",
      "zipcode": 0,
      "street": "st",
      "number": 0
    },
    "birth_place": {
      "city": "ct",
      "zipcode": 0,
      "street": "st",
      "number": 0
    },
    "birth": {
      "year": 0,
      "month": 0,
      "day": 0
    },
    "favorite_subjects": [
      {
        "id": 19,
        "title": "",
        "code": ""
      }
    ],
    "email_addresses": [
      "em addr"
    ],
    "schools": [
      {
        "name": "school",
        "address": {
          "city": "ct",
          "zipcode": 0,
          "street": "st",
          "number": 0
        },
        "foundation": {
          "year": 0,
          "month": 0,
          "day": 0
        },
        "email_addresses": [
          "em1",
          "em2",
          "em3"
        ]
      }
    ]
  },
  {
    "name": "",
    "friends": 1,
    "home_address": {
      "city": "ct",
      "zipcode": 0,
      "street": "st",
      "number": 0
    },
    "birth_place": {
      "city": "ct",
      "zipcode": 0,
      "street": "st",
      "number": 0
    },
    "birth": {
      "year": 0,
      "month": 0,
      "day": 0
    },
    "favorite_subjects": [
      {
        "id": 20,
        "title": "",
        "code": ""
      }
    ],
    "email_addresses": [
      "em addr"
    ],
    "schools": [
      {
        "name": "school",
        "address": {
          "city": "ct",
          "zipcode": 0,
          "street": "st",
          "number": 0
        },
        "foundation": {
          "year": 0,
          "month": 0,
          "day": 0
        },
        "email_addresses": [
          "em1",
          "em2",
          "em3"
        ]
      }
    ]
  },
  {
    "name": "",
    "friends": 1,
    "home_address": {
      "city": "ct",
      "zipcode": 0,
      "street": "st",
      "number": 0
    },
    "birth_place": {
      "city": "ct",
      "zipcode": 0,
      "street": "st",
      "number": 0
    },
    "birth": {
      "year": 0,
      "month": 0,
      "day": 0
    },
    "favorite_subjects": [
      {
        "id": 21,
        "title": "",
        "code": ""
      }
    ],
    "email_addresses": [
      "em addr"
    ],
    "schools": [
      {
        "name": "school",
        "address": {
          "city": "ct",
          "zipcode": 0,
          "street": "st",
          "number": 0
        },
        "foundation": {
          "year": 0,
          "month": 0,
          "day": 0
        },
        "email_addresses": [
          "em1",
          "em2",
          "em3"
        ]
      }
    ]
  },
  {
    "name": "",
    "friends": 1,
    "home_address": {
      "city": "ct",
      "zipcode": 0,
      "street": "st",
      "number": 0
    },
    "birth_place": {
      "city": "ct",
      "zipcode": 0,
      "street": "st",
      "number": 0
    },
    "birth": {
      "year": 0,
      "month": 0,
      "day": 0
    },
    "favorite_subjects": [
      {
        "id": 22,
        "title": "",
        "code": ""
      }
    ],
    "email_addresses": [
      "em addr"
    ],
    "schools": [
      {
        "name": "school",
        "address": {
          "city": "ct",
          "zipcode": 0,
          "street": "st",
          "number": 0
        },
        "foundation": {
          "year": 0,
          "month": 0,
          "day": 0
        },
        "email_addresses": [
          "em1",
          "em2",
          "em3"
        ]
      }
    ]
  },
  {
    "name": "",
    "friends": 1,
    "home_address": {
      "city": "ct",
      "zipcode": 0,
      "street": "st",
      "number": 0
    },
    "birth_place": {
      "city": "ct",
      "zipcode": 0,
      "street": "st",
      "number": 0
    },
    "birth": {
      "year": 0,
      "month": 0,
      "day": 0
    },
    "favorite_subjects": [
      {
        "id": 23,
        "title": "",
        "code": ""
      }
    ],
    "email_addresses": [
      "em addr"
    ],
    "schools": [
      {
        "name": "school",
        "address": {
          "city": "ct",
          "zipcode": 0,
          "street": "st",
          "number": 0
        },
        "foundation": {
          "year": 0,
          "month": 0,
          "day": 0
        },
        "email_addresses": [
          "em1",
          "em2",
          "em3"
        ]
      }
    ]
  },
  {
    "name": "",
    "friends": 1,
    "home_address": {
      "city": "ct",
      "zipcode": 0,
      "street": "st",
      "number": 0
    },
    "birth_place": {
      "city": "ct",
      "zipcode": 0,
      "street": "st",
      "number": 0
    },
    "birth": {
      "year": 0,
      "month": 0,
      "day": 0
    },
    "favorite_subjects": [
      {
        "id": 24,
        "title": "",
        "code": ""
      }
    ],
    "email_addresses": [
      "em addr"
    ],
    "schools": [
      {
        "name": "school",
        "address": {
          "city": "ct",
          "zipcode": 0,
          "street": "st",
          "number": 0
        },
        "foundation": {
          "year": 0,
          "month": 0,
          "day": 0
        },
        "email_addresses": [
          "em1",
          "em2",
          "em3"
        ]
      }
    ]
  },
  {
    "name": "",
    "friends": 1,
    "home_address": {
      "city": "ct",
      "zipcode": 0,
      "street": "st",
      "number": 0
    },
    "birth_place": {
      "city": "ct",
      "zipcode": 0,
      "street": "st",
      "number": 0
    },
    "birth": {
      "year": 0,
      "month": 0,
      "day": 0
    },
    "favorite_subjects": [
      {
        "id": 25,
        "title": "",
        "code": ""
      }
    ],
    "email_addresses": [
      "em addr"
    ],
    "schools": [
      {
        "name": "school",
        "address": {
          "city": "ct",
          "zipcode": 0,
          "street": "st",
          "number": 0
        },
        "foundation": {
          "year": 0,
          "month": 0,
          "day": 0
        },
        "email_addresses": [
          "em1",
          "em2",
          "em3"
        ]
      }
    ]
  },
  {
    "name": "",
    "friends": 1,
    "home_address": {
      "city": "ct",
      "zipcode": 0,
      "street": "st",
      "number": 0
    },
    "birth_place": {
      "city": "ct",
      "zipcode": 0,
      "street": "st",
      "number": 0
    },
    "birth": {
      "year": 0,
      "month": 0,
      "day": 0
    },
    "favorite_subjects": [
      {
        "id": 26,
        "title": "",
        "code": ""
      }
    ],
    "email_addresses": [
      "em addr"
    ],
    "schools": [
      {
        "name": "school",
        "address": {
          "city": "ct",
          "zipcode": 0,
          "street": "st",
          "number": 0
        },
        "foundation": {
          "year": 0,
          "month": 0,
          "day": 0
        },
        "email_addresses": [
          "em1",
          "em2",
          "em3"
        ]
      }
    ]
  },
  {
    "name": "",
    "friends": 1,
    "home_address": {
      "city": "ct",
      "zipcode": 0,
      "street": "st",
      "number": 0
    },
    "birth_place": {
      "city": "ct",
      "zipcode": 0,
      "street": "st",
      "number": 0
    },
    "birth": {
      "year": 0,
      "month": 0,
      "day": 0
    },
    "favorite_subjects": [
      {
        "id": 27,
        "title": "",
        "code": ""
      }
    ],
    "email_addresses": [
      "em addr"
    ],
    "schools": [
      {
        "name": "school",
        "address": {
          "city": "ct",
          "zipcode": 0,
          "street": "st",
          "number": 0
        },
        "foundation": {
          "year": 0,
          "month": 0,
          "day": 0
        },
        "email_addresses": [
          "em1",
          "em2",
          "em3"
        ]
      }
    ]
  },
  {
    "name": "",
    "friends": 1,
    "home_address": {
      "city": "ct",
      "zipcode": 0,
      "street": "st",
      "number": 0
    },
    "birth_place": {
      "city": "ct",
      "zipcode": 0,
      "street": "st",
      "number": 0
    },
    "birth": {
      "year": 0,
      "month": 0,
      "day": 0
    },
    "favorite_subjects": [
      {
        "id": 28,
        "title": "",
        "code": ""
      }
    ],
    "email_addresses": [
      "em addr"
    ],
    "schools": [
      {
        "name": "school",
        "address": {
          "city": "ct",
          "zipcode": 0,
          "street": "st",
          "number": 0
        },
        "foundation": {
          "year": 0,
          "month": 0,
          "day": 0
        },
        "email_addresses": [
          "em1",
          "em2",
          "em3"
        ]
      }
    ]
  },
  {
    "name": "",
    "friends": 1,
    "home_address": {
      "city": "ct",
      "zipcode": 0,
      "street": "st",
      "number": 0
    },
    "birth_place": {
      "city": "ct",
      "zipcode": 0,
      "street": "st",
      "number": 0
    },
    "birth": {
      "year": 0,
      "month": 0,
      "day": 0
    },
    "favorite_subjects": [
      {
        "id": 29,
        "title": "",
        "code": ""
      }
    ],
    "email_addresses": [
      "em addr"
    ],
    "schools": [
      {
        "name": "school",
        "address": {
          "city": "ct",
          "zipcode": 0,
          "street": "st",
          "number": 0
        },
        "foundation": {
          "year": 0,
          "month": 0,
          "day": 0
        },
        "email_addresses": [
          "em1",
          "em2",
          "em3"
        ]
      }
    ]
  },
  {
    "name": "",
    "friends": 1,
    "home_address": {
      "city": "ct",
      "zipcode": 0,
      "street": "st",
      "number": 0
    },
    "birth_place": {
      "city": "ct",
      "zipcode": 0,
      "street": "st",
      "number": 0
    },
    "birth": {
      "year": 0,
      "month": 0,
      "day": 0
    },
    "favorite_subjects": [
      {
        "id": 30,
        "title": "",
        "code": ""
      }
    ],
    "email_addresses": [
      "em addr"
    ],
    "schools": [
      {
        "name": "school",
        "address": {
          "city": "ct",
          "zipcode": 0,
          "street": "st",
          "number": 0
        },
        "foundation": {
          "year": 0,
          "month": 0,
          "day": 0
        },
        "email_addresses": [
          "em1",
          "em2",
          "em3"
        ]
      }
    ]
  },
  {
    "name": "",
    "friends": 1,
    "home_address": {
      "city": "ct",
      "zipcode": 0,
      "street": "st",
      "number": 0
    },
    "birth_place": {
      "city": "ct",
      "zipcode": 0,
      "street": "st",
      "number": 0
    },
    "birth": {
      "year": 0,
      "month": 0,
      "day": 0
    },
    "favorite_subjects": [
      {
        "id": 31,
        "title": "",
        "code": ""
      }
    ],
    "email_addresses": [
      "em addr"
    ],
    "schools": [
      {
        "name": "school",
        "address": {
          "city": "ct",
          "zipcode": 0,
          "street": "st",
          "number": 0
        },
        "foundation": {
          "year": 0,
          "month": 0,
          "day": 0
        },
        "email_addresses": [
          "em1",
          "em2",
          "em3"
        ]
      }
    ]
  },
  {
    "name": "",
    "friends": 1,
    "home_address": {
      "city": "ct",
      "zipcode": 0,
      "street": "st",
      "number": 0
    },
    "birth_place": {
      "city": "ct",
      "zipcode": 0,
      "street": "st",
      "number": 0
    },
    "birth": {
      "year": 0,
      "month": 0,
      "day": 0
    },
    "favorite_subjects": [
      {
        "id": 32,
        "title": "",
        "code": ""
      }
    ],
    "email_addresses": [
      "em addr"
    ],
    "schools": [
      {
        "name": "school",
        "address": {
          "city": "ct",
          "zipcode": 0,
          "street": "st",
          "number": 0
        },
        "foundation": {
          "year": 0,
          "month": 0,
          "day": 0
        },
        "email_addresses": [
          "em1",
          "em2",
          "em3"
        ]
      }
    ]
  },
  {
    "name": "",
    "friends": 1,
    "home_address": {
      "city": "ct",
      "zipcode": 0,
      "street": "st",
      "number": 0
    },
    "birth_place": {
      "city": "ct",
      "zipcode": 0,
      "street": "st",
      "number": 0
    },
    "birth": {
      "year": 0,
      "month": 0,
      "day": 0
    },
    "favorite_subjects": [
      {
        "id": 33,
        "title": "",
        "code": ""
      }
    ],
    "email_addresses": [
      "em addr"
    ],
    "schools": [
      {
        "name": "school",
        "address": {
          "city": "ct",
          "zipcode": 0,
          "street": "st",
          "number": 0
        },
        "foundation": {
          "year": 0,
          "month": 0,
          "day": 0
        },
        "email_addresses": [
          "em1",
          "em2",
          "em3"
        ]
      }
    ]
  },
  {
    "name": "",
    "friends": 1,
    "home_address": {
      "city": "ct",
      "zipcode": 0,
      "street": "st",
      "number": 0
    },
    "birth_place": {
      "city": "ct",
      "zipcode": 0,
      "street": "st",
      "number": 0
    },
    "birth": {
      "year": 0,
      "month": 0,
      "day": 0
    },
    "favorite_subjects": [
      {
        "id": 34,
        "title": "",
        "code": ""
      }
    ],
    "email_addresses": [
      "em addr"
    ],
    "schools": [
      {
        "name": "school",
        "address": {
          "city": "ct",
          "zipcode": 0,
          "street": "st",
          "number": 0
        },
        "foundation": {
          "year": 0,
          "month": 0,
          "day": 0
        },
        "email_addresses": [
          "em1",
          "em2",
          "em3"
        ]
      }
    ]
  },
  {
    "name": "",
    "friends": 1,
    "home_address": {
      "city": "ct",
      "zipcode": 0,
      "street": "st",
      "number": 0
    },
    "birth_place": {
      "city": "ct",
      "zipcode": 0,
      "street": "st",
      "number": 0
    },
    "birth": {
      "year": 0,
      "month": 0,
      "day": 0
    },
    "favorite_subjects": [
      {
        "id": 35,
        "title": "",
        "code": ""
      }
    ],
    "email_addresses": [
      "em addr"
    ],
    "schools": [
      {
        "name": "school",
        "address": {
          "city": "ct",
          "zipcode": 0,
          "street": "st",
          "number": 0
        },
        "foundation": {
          "year": 0,
          "month": 0,
          "day": 0
        },
        "email_addresses": [
          "em1",
          "em2",
          "em3"
        ]
      }
    ]
  },
  {
    "name": "",
    "friends": 1,
    "home_address": {
      "city": "ct",
      "zipcode": 0,
      "street": "st",
      "number": 0
    },
    "birth_place": {
      "city": "ct",
      "zipcode": 0,
      "street": "st",
      "number": 0
    },
    "birth": {
      "year": 0,
      "month": 0,
      "day": 0
    },
    "favorite_subjects": [
      {
        "id": 36,
        "title": "",
        "code": ""
      }
    ],
    "email_addresses": [
      "em addr"
    ],
    "schools": [
      {
        "name": "school",
        "address": {
          "city": "ct",
          "zipcode": 0,
          "street": "st",
          "number": 0
        },
        "foundation": {
          "year": 0,
          "month": 0,
          "day": 0
        },
        "email_addresses": [
          "em1",
          "em2",
          "em3"
        ]
      }
    ]
  },
  {
    "name": "",
    "friends": 1,
    "home_address": {
      "city": "ct",
      "zipcode": 0,
      "street": "st",
      "number": 0
    },
    "birth_place": {
      "city": "ct",
      "zipcode": 0,
      "street": "st",
      "number": 0
    },
    "birth": {
      "year": 0,
      "month": 0,
      "day": 0
    },
    "favorite_subjects": [
      {
        "id": 37,
        "title": "",
        "code": ""
      }
    ],
    "email_addresses": [
      "em addr"
    ],
    "schools": [
      {
        "name": "school",
        "address": {
          "city": "ct",
          "zipcode": 0,
          "street": "st",
          "number": 0
        },
        "foundation": {
          "year": 0,
          "month": 0,
          "day": 0
        },
        "email_addresses": [
          "em1",
          "em2",
          "em3"
        ]
      }
    ]
  },
  {
    "name": "",
    "friends": 1,
    "home_address": {
      "city": "ct",
      "zipcode": 0,
      "street": "st",
      "number": 0
    },
    "birth_place": {
      "city": "ct",
      "zipcode": 0,
      "street": "st",
      "number": 0
    },
    "birth": {
      "year": 0,
      "month": 0,
      "day": 0
    },
    "favorite_subjects": [
      {
        "id": 38,
        "title": "",
        "code": ""
      }
    ],
    "email_addresses": [
      "em addr"
    ],
    "schools": [
      {
        "name": "school",
        "address": {
          "city": "ct",
          "zipcode": 0,
          "street": "st",
          "number": 0
        },
        "foundation": {
          "year": 0,
          "month": 0,
          "day": 0
        },
        "email_addresses": [
          "em1",
          "em2",
          "em3"
        ]
      }
    ]
  },
  {
    "name": "",
    "friends": 1,
    "home_address": {
      "city": "ct",
      "zipcode": 0,
      "street": "st",
      "number": 0
    },
    "birth_place": {
      "city": "ct",
      "zipcode": 0,
      "street": "st",
      "number": 0
    },
    "birth": {
      "year": 0,
      "month": 0,
      "day": 0
    },
    "favorite_subjects": [
      {
        "id": 39,
        "title": "",
        "code": ""
      }
    ],
    "email_addresses": [
      "em addr"
    ],
    "schools": [
      {
        "name": "school",
        "address": {
          "city": "ct",
          "zipcode": 0,
          "street": "st",
          "number": 0
        },
        "foundation": {
          "year": 0,
          "month": 0,
          "day": 0
        },
        "email_addresses": [
          "em1",
          "em2",
          "em3"
        ]
      }
    ]
  },
  {
    "name": "",
    "friends": 1,
    "home_address": {
      "city": "ct",
      "zipcode": 0,
      "street": "st",
      "number": 0
    },
    "birth_place": {
      "city": "ct",
      "zipcode": 0,
      "street": "st",
      "number": 0
    },
    "birth": {
      "year": 0,
      "month": 0,
      "day": 0
    },
    "favorite_subjects": [
      {
        "id": 40,
        "title": "",
        "code": ""
      }
    ],
    "email_addresses": [
      "em addr"
    ],
    "schools": [
      {
        "name": "school",
        "address": {
          "city": "ct",
          "zipcode": 0,
          "street": "st",
          "number": 0
        },
        "foundation": {
          "year": 0,
          "month": 0,
          "day": 0
        },
        "email_addresses": [
          "em1",
          "em2",
          "em3"
        ]
      }
    ]
  },
  {
    "name": "",
    "friends": 1,
    "home_address": {
      "city": "ct",
      "zipcode": 0,
      "street": "st",
      "number": 0
    },
    "birth_place": {
      "city": "ct",
      "zipcode": 0,
      "street": "st",
      "number": 0
    },
    "birth": {
      "year": 0,
      "month": 0,
      "day": 0
    },
    "favorite_subjects": [
      {
        "id": 41,
        "title": "",
        "code": ""
      }
    ],
    "email_addresses": [
      "em addr"
    ],
    "schools": [
      {
        "name": "school",
        "address": {
          "city": "ct",
          "zipcode": 0,
          "street": "st",
          "number": 0
        },
        "foundation": {
          "year": 0,
          "month": 0,
          "day": 0
        },
        "email_addresses": [
          "em1",
          "em2",
          "em3"
        ]
      }
    ]
  },
  {
    "name": "",
    "friends": 1,
    "home_address": {
      "city": "ct",
      "zipcode": 0,
      "street": "st",
      "number": 0
    },
    "birth_place": {
      "city": "ct",
      "zipcode": 0,
      "street": "st",
      "number": 0
    },
    "birth": {
      "year": 0,
      "month": 0,
      "day": 0
    },
    "favorite_subjects": [
      {
        "id": 42,
        "title": "",
        "code": ""
      }
    ],
    "email_addresses": [
      "em addr"
    ],
    "schools": [
      {
        "name": "school",
        "address": {
          "city": "ct",
          "zipcode": 0,
          "street": "st",
          "number": 0
        },
        "foundation": {
          "year": 0,
          "month": 0,
          "day": 0
        },
        "email_addresses": [
          "em1",
          "em2",
          "em3"
        ]
      }
    ]
  },
  {
    "name": "",
    "friends": 1,
    "home_address": {
      "city": "ct",
      "zipcode": 0,
      "street": "st",
      "number": 0
    },
    "birth_place": {
      "city": "ct",
      "zipcode": 0,
      "street": "st",
      "number": 0
    },
    "birth": {
      "year": 0,
      "month": 0,
      "day": 0
    },
    "favorite_subjects": [
      {
        "id": 43,
        "title": "",
        "code": ""
      }
    ],
    "email_addresses": [
      "em addr"
    ],
    "schools": [
      {
        "name": "school",
        "address": {
          "city": "ct",
          "zipcode": 0,
          "street": "st",
          "number": 0
        },
        "foundation": {
          "year": 0,
          "month": 0,
          "day": 0
        },
        "email_addresses": [
          "em1",
          "em2",
          "em3"
        ]
      }
    ]
  },
  {
    "name": "",
    "friends": 1,
    "home_address": {
      "city": "ct",
      "zipcode": 0,
      "street": "st",
      "number": 0
    },
    "birth_place": {
      "city": "ct",
      "zipcode": 0,
      "street": "st",
      "number": 0
    },
    "birth": {
      "year": 0,
      "month": 0,
      "day": 0
    },
    "favorite_subjects": [
      {
        "id": 44,
        "title": "",
        "code": ""
      }
    ],
    "email_addresses": [
      "em addr"
    ],
    "schools": [
      {
        "name": "school",
        "address": {
          "city": "ct",
          "zipcode": 0,
          "street": "st",
          "number": 0
        },
        "foundation": {
          "year": 0,
          "month": 0,
          "day": 0
        },
        "email_addresses": [
          "em1",
          "em2",
          "em3"
        ]
      }
    ]
  },
  {
    "name": "",
    "friends": 1,
    "home_address": {
      "city": "ct",
      "zipcode": 0,
      "street": "st",
      "number": 0
    },
    "birth_place": {
      "city": "ct",
      "zipcode": 0,
      "street": "st",
      "number": 0
    },
    "birth": {
      "year": 0,
      "month": 0,
      "day": 0
    },
    "favorite_subjects": [
      {
        "id": 45,
        "title": "",
        "code": ""
      }
    ],
    "email_addresses": [
      "em addr"
    ],
    "schools": [
      {
        "name": "school",
        "address": {
          "city": "ct",
          "zipcode": 0,
          "street": "st",
          "number": 0
        },
        "foundation": {
          "year": 0,
          "month": 0,
          "day": 0
        },
        "email_addresses": [
          "em1",
          "em2",
          "em3"
        ]
      }
    ]
  },
  {
    "name": "",
    "friends": 1,
    "home_address": {
      "city": "ct",
      "zipcode": 0,
      "street": "st",
      "number": 0
    },
    "birth_place": {
      "city": "ct",
      "zipcode": 0,
      "street": "st",
      "number": 0
    },
    "birth": {
      "year": 0,
      "month": 0,
      "day": 0
    },
    "favorite_subjects": [
      {
        "id": 46,
        "title": "",
        "code": ""
      }
    ],
    "email_addresses": [
      "em addr"
    ],
    "schools": [
      {
        "name": "school",
        "address": {
          "city": "ct",
          "zipcode": 0,
          "street": "st",
          "number": 0
        },
        "foundation": {
          "year": 0,
          "month": 0,
          "day": 0
        },
        "email_addresses": [
          "em1",
          "em2",
          "em3"
        ]
      }
    ]
  },
  {
    "name": "",
    "friends": 1,
    "home_address": {
      "city": "ct",
      "zipcode": 0,
      "street": "st",
      "number": 0
    },
    "birth_place": {
      "city": "ct",
      "zipcode": 0,
      "street": "st",
      "number": 0
    },
    "birth": {
      "year": 0,
      "month": 0,
      "day": 0
    },
    "favorite_subjects": [
      {
        "id": 47,
        "title": "",
        "code": ""
      }
    ],
    "email_addresses": [
      "em addr"
    ],
    "schools": [
      {
        "name": "school",
        "address": {
          "city": "ct",
          "zipcode": 0,
          "street": "st",
          "number": 0
        },
        "foundation": {
          "year": 0,
          "month": 0,
          "day": 0
        },
        "email_addresses": [
          "em1",
          "em2",
          "em3"
        ]
      }
    ]
  },
  {
    "name": "",
    "friends": 1,
    "home_address": {
      "city": "ct",
      "zipcode": 0,
      "street": "st",
      "number": 0
    },
    "birth_place": {
      "city": "ct",
      "zipcode": 0,
      "street": "st",
      "number": 0
    },
    "birth": {
      "year": 0,
      "month": 0,
      "day": 0
    },
    "favorite_subjects": [
      {
        "id": 48,
        "title": "",
        "code": ""
      }
    ],
    "email_addresses": [
      "em addr"
    ],
    "schools": [
      {
        "name": "school",
        "address": {
          "city": "ct",
          "zipcode": 0,
          "street": "st",
          "number": 0
        },
        "foundation": {
          "year": 0,
          "month": 0,
          "day": 0
        },
        "email_addresses": [
          "em1",
          "em2",
          "em3"
        ]
      }
    ]
  },
  {
    "name": "",
    "friends": 1,
    "home_address": {
      "city": "ct",
      "zipcode": 0,
      "street": "st",
      "number": 0
    },
    "birth_place": {
      "city": "ct",
      "zipcode": 0,
      "street": "st",
      "number": 0
    },
    "birth": {
      "year": 0,
      "month": 0,
      "day": 0
    },
    "favorite_subjects": [
      {
        "id": 49,
        "title": "",
        "code": ""
      }
    ],
    "email_addresses": [
      "em addr"
    ],
    "schools": [
      {
        "name": "school",
        "address": {
          "city": "ct",
          "zipcode": 0,
          "street": "st",
          "number": 0
        },
        "foundation": {
          "year": 0,
          "month": 0,
          "day": 0
        },
        "email_addresses": [
          "em1",
          "em2",
          "em3"
        ]
      }
    ]
  },
  {
    "name": "",
    "friends": 1,
    "home_address": {
      "city": "ct",
      "zipcode": 0,
      "street": "st",
      "number": 0
    },
    "birth_place": {
      "city": "ct",
      "zipcode": 0,
      "street": "st",
      "number": 0
    },
    "birth": {
      "year": 0,
      "month": 0,
      "day": 0
    },
    "favorite_subjects": [
      {
        "id": 50,
        "title": "",
        "code": ""
      }
    ],
    "email_addresses": [
      "em addr"
    ],
    "schools": [
      {
        "name": "school",
        "address": {
          "city": "ct",
          "zipcode": 0,
          "street": "st",
          "number": 0
        },
        "foundation": {
          "year": 0,
          "month": 0,
          "day": 0
        },
        "email_addresses": [
          "em1",
          "em2",
          "em3"
        ]
      }
    ]
  },
  {
    "name": "",
    "friends": 1,
    "home_address": {
      "city": "ct",
      "zipcode": 0,
      "street": "st",
      "number": 0
    },
    "birth_place": {
      "city": "ct",
      "zipcode": 0,
      "street": "st",
      "number": 0
    },
    "birth": {
      "year": 0,
      "month": 0,
      "day": 0
    },
    "favorite_subjects": [
      {
        "id": 51,
        "title": "",
        "code": ""
      }
    ],
    "email_addresses": [
      "em addr"
    ],
    "schools": [
      {
        "name": "school",
        "address": {
          "city": "ct",
          "zipcode": 0,
          "street": "st",
          "number": 0
        },
        "foundation": {
          "year": 0,
          "month": 0,
          "day": 0
        },
        "email_addresses": [
          "em1",
          "em2",
          "em3"
        ]
      }
    ]
  },
  {
    "name": "",
    "friends": 1,
    "home_address": {
      "city": "ct",
      "zipcode": 0,
      "street": "st",
      "number": 0
    },
    "birth_place": {
      "city": "ct",
      "zipcode": 0,
      "street": "st",
      "number": 0
    },
    "birth": {
      "year": 0,
      "month": 0,
      "day": 0
    },
    "favorite_subjects": [
      {
        "id": 52,
        "title": "",
        "code": ""
      }
    ],
    "email_addresses": [
      "em addr"
    ],
    "schools": [
      {
        "name": "school",
        "address": {
          "city": "ct",
          "zipcode": 0,
          "street": "st",
          "number": 0
        },
        "foundation": {
          "year": 0,
          "month": 0,
          "day": 0
        },
        "email_addresses": [
          "em1",
          "em2",
          "em3"
        ]
      }
    ]
  },
  {
    "name": "",
    "friends": 1,
    "home_address": {
      "city": "ct",
      "zipcode": 0,
      "street": "st",
      "number": 0
    },
    "birth_place": {
      "city": "ct",
      "zipcode": 0,
      "street": "st",
      "number": 0
    },
    "birth": {
      "year": 0,
      "month": 0,
      "day": 0
    },
    "favorite_subjects": [
      {
        "id": 53,
        "title": "",
        "code": ""
      }
    ],
    "email_addresses": [
      "em addr"
    ],
    "schools": [
      {
        "name": "school",
        "address": {
          "city": "ct",
          "zipcode": 0,
          "street": "st",
          "number": 0
        },
        "foundation": {
          "year": 0,
          "month": 0,
          "day": 0
        },
        "email_addresses": [
          "em1",
          "em2",
          "em3"
        ]
      }
    ]
  },
  {
    "name": "",
    "friends": 1,
    "home_address": {
      "city": "ct",
      "zipcode": 0,
      "street": "st",
      "number": 0
    },
    "birth_place": {
      "city": "ct",
      "zipcode": 0,
      "street": "st",
      "number": 0
    },
    "birth": {
      "year": 0,
      "month": 0,
      "day": 0
    },
    "favorite_subjects": [
      {
        "id": 54,
        "title": "",
        "code": ""
      }
    ],
    "email_addresses": [
      "em addr"
    ],
    "schools": [
      {
        "name": "school",
        "address": {
          "city": "ct",
          "zipcode": 0,
          "street": "st",
          "number": 0
        },
        "foundation": {
          "year": 0,
          "month": 0,
          "day": 0
        },
        "email_addresses": [
          "em1",
          "em2",
          "em3"
        ]
      }
    ]
  },
  {
    "name": "",
    "friends": 1,
    "home_address": {
      "city": "ct",
      "zipcode": 0,
      "street": "st",
      "number": 0
    },
    "birth_place": {
      "city": "ct",
      "zipcode": 0,
      "street": "st",
      "number": 0
    },
    "birth": {
      "year": 0,
      "month": 0,
      "day": 0
    },
    "favorite_subjects": [
      {
        "id": 55,
        "title": "",
        "code": ""
      }
    ],
    "email_addresses": [
      "em addr"
    ],
    "schools": [
      {
        "name": "school",
        "address": {
          "city": "ct",
          "zipcode": 0,
          "street": "st",
          "number": 0
        },
        "foundation": {
          "year": 0,
          "month": 0,
          "day": 0
        },
        "email_addresses": [
          "em1",
          "em2",
          "em3"
        ]
      }
    ]
  },
  {
    "name": "",
    "friends": 1,
    "home_address": {
      "city": "ct",
      "zipcode": 0,
      "street": "st",
      "number": 0
    },
    "birth_place": {
      "city": "ct",
      "zipcode": 0,
      "street": "st",
      "number": 0
    },
    "birth": {
      "year": 0,
      "month": 0,
      "day": 0
    },
    "favorite_subjects": [
      {
        "id": 56,
        "title": "",
        "code": ""
      }
    ],
    "email_addresses": [
      "em addr"
    ],
    "schools": [
      {
        "name": "school",
        "address": {
          "city": "ct",
          "zipcode": 0,
          "street": "st",
          "number": 0
        },
        "foundation": {
          "year": 0,
          "month": 0,
          "day": 0
        },
        "email_addresses": [
          "em1",
          "em2",
          "em3"
        ]
      }
    ]
  },
  {
    "name": "",
    "friends": 1,
    "home_address": {
      "city": "ct",
      "zipcode": 0,
      "street": "st",
      "number": 0
    },
    "birth_place": {
      "city": "ct",
      "zipcode": 0,
      "street": "st",
      "number": 0
    },
    "birth": {
      "year": 0,
      "month": 0,
      "day": 0
    },
    "favorite_subjects": [
      {
        "id": 57,
        "title": "",
        "code": ""
      }
    ],
    "email_addresses": [
      "em addr"
    ],
    "schools": [
      {
        "name": "school",
        "address": {
          "city": "ct",
          "zipcode": 0,
          "street": "st",
          "number": 0
        },
        "foundation": {
          "year": 0,
          "month": 0,
          "day": 0
        },
        "email_addresses": [
          "em1",
          "em2",
          "em3"
        ]
      }
    ]
  },
  {
    "name": "",
    "friends": 1,
    "home_address": {
      "city": "ct",
      "zipcode": 0,
      "street": "st",
      "number": 0
    },
    "birth_place": {
      "city": "ct",
      "zipcode": 0,
      "street": "st",
      "number": 0
    },
    "birth": {
      "year": 0,
      "month": 0,
      "day": 0
    },
    "favorite_subjects": [
      {
        "id": 58,
        "title": "",
        "code": ""
      }
    ],
    "email_addresses": [
      "em addr"
    ],
    "schools": [
      {
        "name": "school",
        "address": {
          "city": "ct",
          "zipcode": 0,
          "street": "st",
          "number": 0
        },
        "foundation": {
          "year": 0,
          "month": 0,
          "day": 0
        },
        "email_addresses": [
          "em1",
          "em2",
          "em3"
        ]
      }
    ]
  },
  {
    "name": "",
    "friends": 1,
    "home_address": {
      "city": "ct",
      "zipcode": 0,
      "street": "st",
      "number": 0
    },
    "birth_place": {
      "city": "ct",
      "zipcode": 0,
      "street": "st",
      "number": 0
    },
    "birth": {
      "year": 0,
      "month": 0,
      "day": 0
    },
    "favorite_subjects": [
      {
        "id": 59,
        "title": "",
        "code": ""
      }
    ],
    "email_addresses": [
      "em addr"
    ],
    "schools": [
      {
        "name": "school",
        "address": {
          "city": "ct",
          "zipcode": 0,
          "street": "st",
          "number": 0
        },
        "foundation": {
          "year": 0,
          "month": 0,
          "day": 0
        },
        "email_addresses": [
          "em1",
          "em2",
          "em3"
        ]
      }
    ]
  },
  {
    "name": "",
    "friends": 1,
    "home_address": {
      "city": "ct",
      "zipcode": 0,
      "street": "st",
      "number": 0
    },
    "birth_place": {
      "city": "ct",
      "zipcode": 0,
      "street": "st",
      "number": 0
    },
    "birth": {
      "year": 0,
      "month": 0,
      "day": 0
    },
    "favorite_subjects": [
      {
        "id": 60,
        "title": "",
        "code": ""
      }
    ],
    "email_addresses": [
      "em addr"
    ],
    "schools": [
      {
        "name": "school",
        "address": {
          "city": "ct",
          "zipcode": 0,
          "street": "st",
          "number": 0
        },
        "foundation": {
          "year": 0,
          "month": 0,
          "day": 0
        },
        "email_addresses": [
          "em1",
          "em2",
          "em3"
        ]
      }
    ]
  },
  {
    "name": "",
    "friends": 1,
    "home_address": {
      "city": "ct",
      "zipcode": 0,
      "street": "st",
      "number": 0
    },
    "birth_place": {
      "city": "ct",
      "zipcode": 0,
      "street": "st",
      "number": 0
    },
    "birth": {
      "year": 0,
      "month": 0,
      "day": 0
    },
    "favorite_subjects": [
      {
        "id": 61,
        "title": "",
        "code": ""
      }
    ],
    "email_addresses": [
      "em addr"
    ],
    "schools": [
      {
        "name": "school",
        "address": {
          "city": "ct",
          "zipcode": 0,
          "street": "st",
          "number": 0
        },
        "foundation": {
          "year": 0,
          "month": 0,
          "day": 0
        },
        "email_addresses": [
          "em1",
          "em2",
          "em3"
        ]
      }
    ]
  },
  {
    "name": "",
    "friends": 1,
    "home_address": {
      "city": "ct",
      "zipcode": 0,
      "street": "st",
      "number": 0
    },
    "birth_place": {
      "city": "ct",
      "zipcode": 0,
      "street": "st",
      "number": 0
    },
    "birth": {
      "year": 0,
      "month": 0,
      "day": 0
    },
    "favorite_subjects": [
      {
        "id": 62,
        "title": "",
        "code": ""
      }
    ],
    "email_addresses": [
      "em addr"
    ],
    "schools": [
      {
        "name": "school",
        "address": {
          "city": "ct",
          "zipcode": 0,
          "street": "st",
          "number": 0
        },
        "foundation": {
          "year": 0,
          "month": 0,
          "day": 0
        },
        "email_addresses": [
          "em1",
          "em2",
          "em3"
        ]
      }
    ]
  },
  {
    "name": "",
    "friends": 1,
    "home_address": {
      "city": "ct",
      "zipcode": 0,
      "street": "st",
      "number": 0
    },
    "birth_place": {
      "city": "ct",
      "zipcode": 0,
      "street": "st",
      "number": 0
    },
    "birth": {
      "year": 0,
      "month": 0,
      "day": 0
    },
    "favorite_subjects": [
      {
        "id": 63,
        "title": "",
        "code": ""
      }
    ],
    "email_addresses": [
      "em addr"
    ],
    "schools": [
      {
        "name": "school",
        "address": {
          "city": "ct",
          "zipcode": 0,
          "street": "st",
          "number": 0
        },
        "foundation": {
          "year": 0,
          "month": 0,
          "day": 0
        },
        "email_addresses": [
          "em1",
          "em2",
          "em3"
        ]
      }
    ]
  },
  {
    "name": "",
    "friends": 1,
    "home_address": {
      "city": "ct",
      "zipcode": 0,
      "street": "st",
      "number": 0
    },
    "birth_place": {
      "city": "ct",
      "zipcode": 0,
      "street": "st",
      "number": 0
    },
    "birth": {
      "year": 0,
      "month": 0,
      "day": 0
    },
    "favorite_subjects": [
      {
        "id": 64,
        "title": "",
        "code": ""
      }
    ],
    "email_addresses": [
      "em addr"
    ],
    "schools": [
      {
        "name": "school",
        "address": {
          "city": "ct",
          "zipcode": 0,
          "street": "st",
          "number": 0
        },
        "foundation": {
          "year": 0,
          "month": 0,
          "day": 0
        },
        "email_addresses": [
          "em1",
          "em2",
          "em3"
        ]
      }
    ]
  },
  {
    "name": "",
    "friends": 1,
    "home_address": {
      "city": "ct",
      "zipcode": 0,
      "street": "st",
      "number": 0
    },
    "birth_place": {
      "city": "ct",
      "zipcode": 0,
      "street": "st",
      "number": 0
    },
    "birth": {
      "year": 0,
      "month": 0,
      "day": 0
    },
    "favorite_subjects": [
      {
        "id": 65,
        "title": "",
        "code": ""
      }
    ],
    "email_addresses": [
      "em addr"
    ],
    "schools": [
      {
        "name": "school",
        "address": {
          "city": "ct",
          "zipcode": 0,
          "street": "st",
          "number": 0
        },
        "foundation": {
          "year": 0,
          "month": 0,
          "day": 0
        },
        "email_addresses": [
          "em1",
          "em2",
          "em3"
        ]
      }
    ]
  },
  {
    "name": "",
    "friends": 1,
    "home_address": {
      "city": "ct",
      "zipcode": 0,
      "street": "st",
      "number": 0
    },
    "birth_place": {
      "city": "ct",
      "zipcode": 0,
      "street": "st",
      "number": 0
    },
    "birth": {
      "year": 0,
      "month": 0,
      "day": 0
    },
    "favorite_subjects": [
      {
        "id": 66,
        "title": "",
        "code": ""
      }
    ],
    "email_addresses": [
      "em addr"
    ],
    "schools": [
      {
        "name": "school",
        "address": {
          "city": "ct",
          "zipcode": 0,
          "street": "st",
          "number": 0
        },
        "foundation": {
          "year": 0,
          "month": 0,
          "day": 0
        },
        "email_addresses": [
          "em1",
          "em2",
          "em3"
        ]
      }
    ]
  },
  {
    "name": "",
    "friends": 1,
    "home_address": {
      "city": "ct",
      "zipcode": 0,
      "street": "st",
      "number": 0
    },
    "birth_place": {
      "city": "ct",
      "zipcode": 0,
      "street": "st",
      "number": 0
    },
    "birth": {
      "year": 0,
      "month": 0,
      "day": 0
    },
    "favorite_subjects": [
      {
        "id": 67,
        "title": "",
        "code": ""
      }
    ],
    "email_addresses": [
      "em addr"
    ],
    "schools": [
      {
        "name": "school",
        "address": {
          "city": "ct",
          "zipcode": 0,
          "street": "st",
          "number": 0
        },
        "foundation": {
          "year": 0,
          "month": 0,
          "day": 0
        },
        "email_addresses": [
          "em1",
          "em2",
          "em3"
        ]
      }
    ]
  },
  {
    "name": "",
    "friends": 1,
    "home_address": {
      "city": "ct",
      "zipcode": 0,
      "street": "st",
      "number": 0
    },
    "birth_place": {
      "city": "ct",
      "zipcode": 0,
      "street": "st",
      "number": 0
    },
    "birth": {
      "year": 0,
      "month": 0,
      "day": 0
    },
    "favorite_subjects": [
      {
        "id": 68,
        "title": "",
        "code": ""
      }
    ],
    "email_addresses": [
      "em addr"
    ],
    "schools": [
      {
        "name": "school",
        "address": {
          "city": "ct",
          "zipcode": 0,
          "street": "st",
          "number": 0
        },
        "foundation": {
          "year": 0,
          "month": 0,
          "day": 0
        },
        "email_addresses": [
          "em1",
          "em2",
          "em3"
        ]
      }
    ]
  },
  {
    "name": "",
    "friends": 1,
    "home_address": {
      "city": "ct",
      "zipcode": 0,
      "street": "st",
      "number": 0
    },
    "birth_place": {
      "city": "ct",
      "zipcode": 0,
      "street": "st",
      "number": 0
    },
    "birth": {
      "year": 0,
      "month": 0,
      "day": 0
    },
    "favorite_subjects": [
      {
        "id": 69,
        "title": "",
        "code": ""
      }
    ],
    "email_addresses": [
      "em addr"
    ],
    "schools": [
      {
        "name": "school",
        "address": {
          "city": "ct",
          "zipcode": 0,
          "street": "st",
          "number": 0
        },
        "foundation": {
          "year": 0,
          "month": 0,
          "day": 0
        },
        "email_addresses": [
          "em1",
          "em2",
          "em3"
        ]
      }
    ]
  },
  {
    "name": "",
    "friends": 1,
    "home_address": {
      "city": "ct",
      "zipcode": 0,
      "street": "st",
      "number": 0
    },
    "birth_place": {
      "city": "ct",
      "zipcode": 0,
      "street": "st",
      "number": 0
    },
    "birth": {
      "year": 0,
      "month": 0,
      "day": 0
    },
    "favorite_subjects": [
      {
        "id": 70,
        "title": "",
        "code": ""
      }
    ],
    "email_addresses": [
      "em addr"
    ],
    "schools": [
      {
        "name": "school",
        "address": {
          "city": "ct",
          "zipcode": 0,
          "street": "st",
          "number": 0
        },
        "foundation": {
          "year": 0,
          "month": 0,
          "day": 0
        },
        "email_addresses": [
          "em1",
          "em2",
          "em3"
        ]
      }
    ]
  },
  {
    "name": "",
    "friends": 1,
    "home_address": {
      "city": "ct",
      "zipcode": 0,
      "street": "st",
      "number": 0
    },
    "birth_place": {
      "city": "ct",
      "zipcode": 0,
      "street": "st",
      "number": 0
    },
    "birth": {
      "year": 0,
      "month": 0,
      "day": 0
    },
    "favorite_subjects": [
      {
        "id": 71,
        "title": "",
        "code": ""
      }
    ],
    "email_addresses": [
      "em addr"
    ],
    "schools": [
      {
        "name": "school",
        "address": {
          "city": "ct",
          "zipcode": 0,
          "street": "st",
          "number": 0
        },
        "foundation": {
          "year": 0,
          "month": 0,
          "day": 0
        },
        "email_addresses": [
          "em1",
          "em2",
          "em3"
        ]
      }
    ]
  },
  {
    "name": "",
    "friends": 1,
    "home_address": {
      "city": "ct",
      "zipcode": 0,
      "street": "st",
      "number": 0
    },
    "birth_place": {
      "city": "ct",
      "zipcode": 0,
      "street": "st",
      "number": 0
    },
    "birth": {
      "year": 0,
      "month": 0,
      "day": 0
    },
    "favorite_subjects": [
      {
        "id": 72,
        "title": "",
        "code": ""
      }
    ],
    "email_addresses": [
      "em addr"
    ],
    "schools": [
      {
        "name": "school",
        "address": {
          "city": "ct",
          "zipcode": 0,
          "street": "st",
          "number": 0
        },
        "foundation": {
          "year": 0,
          "month": 0,
          "day": 0
        },
        "email_addresses": [
          "em1",
          "em2",
          "em3"
        ]
      }
    ]
  },
  {
    "name": "",
    "friends": 1,
    "home_address": {
      "city": "ct",
      "zipcode": 0,
      "street": "st",
      "number": 0
    },
    "birth_place": {
      "city": "ct",
      "zipcode": 0,
      "street": "st",
      "number": 0
    },
    "birth": {
      "year": 0,
      "month": 0,
      "day": 0
    },
    "favorite_subjects": [
      {
        "id": 73,
        "title": "",
        "code": ""
      }
    ],
    "email_addresses": [
      "em addr"
    ],
    "schools": [
      {
        "name": "school",
        "address": {
          "city": "ct",
          "zipcode": 0,
          "street": "st",
          "number": 0
        },
        "foundation": {
          "year": 0,
          "month": 0,
          "day": 0
        },
        "email_addresses": [
          "em1",
          "em2",
          "em3"
        ]
      }
    ]
  },
  {
    "name": "",
    "friends": 1,
    "home_address": {
      "city": "ct",
      "zipcode": 0,
      "street": "st",
      "number": 0
    },
    "birth_place": {
      "city": "ct",
      "zipcode": 0,
      "street": "st",
      "number": 0
    },
    "birth": {
      "year": 0,
      "month": 0,
      "day": 0
    },
    "favorite_subjects": [
      {
        "id": 74,
        "title": "",
        "code": ""
      }
    ],
    "email_addresses": [
      "em addr"
    ],
    "schools": [
      {
        "name": "school",
        "address": {
          "city": "ct",
          "zipcode": 0,
          "street": "st",
          "number": 0
        },
        "foundation": {
          "year": 0,
          "month": 0,
          "day": 0
        },
        "email_addresses": [
          "em1",
          "em2",
          "em3"
        ]
      }
    ]
  },
  {
    "name": "",
    "friends": 1,
    "home_address": {
      "city": "ct",
      "zipcode": 0,
      "street": "st",
      "number": 0
    },
    "birth_place": {
      "city": "ct",
      "zipcode": 0,
      "street": "st",
      "number": 0
    },
    "birth": {
      "year": 0,
      "month": 0,
      "day": 0
    },
    "favorite_subjects": [
      {
        "id": 75,
        "title": "",
        "code": ""
      }
    ],
    "email_addresses": [
      "em addr"
    ],
    "schools": [
      {
        "name": "school",
        "address": {
          "city": "ct",
          "zipcode": 0,
          "street": "st",
          "number": 0
        },
        "foundation": {
          "year": 0,
          "month": 0,
          "day": 0
        },
        "email_addresses": [
          "em1",
          "em2",
          "em3"
        ]
      }
    ]
  },
  {
    "name": "",
    "friends": 1,
    "home_address": {
      "city": "ct",
      "zipcode": 0,
      "street": "st",
      "number": 0
    },
    "birth_place": {
      "city": "ct",
      "zipcode": 0,
      "street": "st",
      "number": 0
    },
    "birth": {
      "year": 0,
      "month": 0,
      "day": 0
    },
    "favorite_subjects": [
      {
        "id": 76,
        "title": "",
        "code": ""
      }
    ],
    "email_addresses": [
      "em addr"
    ],
    "schools": [
      {
        "name": "school",
        "address": {
          "city": "ct",
          "zipcode": 0,
          "street": "st",
          "number": 0
        },
        "foundation": {
          "year": 0,
          "month": 0,
          "day": 0
        },
        "email_addresses": [
          "em1",
          "em2",
          "em3"
        ]
      }
    ]
  },
  {
    "name": "",
    "friends": 1,
    "home_address": {
      "city": "ct",
      "zipcode": 0,
      "street": "st",
      "number": 0
    },
    "birth_place": {
      "city": "ct",
      "zipcode": 0,
      "street": "st",
      "number": 0
    },
    "birth": {
      "year": 0,
      "month": 0,
      "day": 0
    },
    "favorite_subjects": [
      {
        "id": 77,
        "title": "",
        "code": ""
      }
    ],
    "email_addresses": [
      "em addr"
    ],
    "schools": [
      {
        "name": "school",
        "address": {
          "city": "ct",
          "zipcode": 0,
          "street": "st",
          "number": 0
        },
        "foundation": {
          "year": 0,
          "month": 0,
          "day": 0
        },
        "email_addresses": [
          "em1",
          "em2",
          "em3"
        ]
      }
    ]
  },
  {
    "name": "",
    "friends": 1,
    "home_address": {
      "city": "ct",
      "zipcode": 0,
      "street": "st",
      "number": 0
    },
    "birth_place": {
      "city": "ct",
      "zipcode": 0,
      "street": "st",
      "number": 0
    },
    "birth": {
      "year": 0,
      "month": 0,
      "day": 0
    },
    "favorite_subjects": [
      {
        "id": 78,
        "title": "",
        "code": ""
      }
    ],
    "email_addresses": [
      "em addr"
    ],
    "schools": [
      {
        "name": "school",
        "address": {
          "city": "ct",
          "zipcode": 0,
          "street": "st",
          "number": 0
        },
        "foundation": {
          "year": 0,
          "month": 0,
          "day": 0
        },
        "email_addresses": [
          "em1",
          "em2",
          "em3"
        ]
      }
    ]
  },
  {
    "name": "",
    "friends": 1,
    "home_address": {
      "city": "ct",
      "zipcode": 0,
      "street": "st",
      "number": 0
    },
    "birth_place": {
      "city": "ct",
      "zipcode": 0,
      "street": "st",
      "number": 0
    },
    "birth": {
      "year": 0,
      "month": 0,
      "day": 0
    },
    "favorite_subjects": [
      {
        "id": 79,
        "title": "",
        "code": ""
      }
    ],
    "email_addresses": [
      "em addr"
    ],
    "schools": [
      {
        "name": "school",
        "address": {
          "city": "ct",
          "zipcode": 0,
          "street": "st",
          "number": 0
        },
        "foundation": {
          "year": 0,
          "month": 0,
          "day": 0
        },
        "email_addresses": [
          "em1",
          "em2",
          "em3"
        ]
      }
    ]
  },
  {
    "name": "",
    "friends": 1,
    "home_address": {
      "city": "ct",
      "zipcode": 0,
      "street": "st",
      "number": 0
    },
    "birth_place": {
      "city": "ct",
      "zipcode": 0,
      "street": "st",
      "number": 0
    },
    "birth": {
      "year": 0,
      "month": 0,
      "day": 0
    },
    "favorite_subjects": [
      {
        "id": 80,
        "title": "",
        "code": ""
      }
    ],
    "email_addresses": [
      "em addr"
    ],
    "schools": [
      {
        "name": "school",
        "address": {
          "city": "ct",
          "zipcode": 0,
          "street": "st",
          "number": 0
        },
        "foundation": {
          "year": 0,
          "month": 0,
          "day": 0
        },
        "email_addresses": [
          "em1",
          "em2",
          "em3"
        ]
      }
    ]
  },
  {
    "name": "",
    "friends": 1,
    "home_address": {
      "city": "ct",
      "zipcode": 0,
      "street": "st",
      "number": 0
    },
    "birth_place": {
      "city": "ct",
      "zipcode": 0,
      "street": "st",
      "number": 0
    },
    "birth": {
      "year": 0,
      "month": 0,
      "day": 0
    },
    "favorite_subjects": [
      {
        "id": 81,
        "title": "",
        "code": ""
      }
    ],
    "email_addresses": [
      "em addr"
    ],
    "schools": [
      {
        "name": "school",
        "address": {
          "city": "ct",
          "zipcode": 0,
          "street": "st",
          "number": 0
        },
        "foundation": {
          "year": 0,
          "month": 0,
          "day": 0
        },
        "email_addresses": [
          "em1",
          "em2",
          "em3"
        ]
      }
    ]
  },
  {
    "name": "",
    "friends": 1,
    "home_address": {
      "city": "ct",
      "zipcode": 0,
      "street": "st",
      "number": 0
    },
    "birth_place": {
      "city": "ct",
      "zipcode": 0,
      "street": "st",
      "number": 0
    },
    "birth": {
      "year": 0,
      "month": 0,
      "day": 0
    },
    "favorite_subjects": [
      {
        "id": 82,
        "title": "",
        "code": ""
      }
    ],
    "email_addresses": [
      "em addr"
    ],
    "schools": [
      {
        "name": "school",
        "address": {
          "city": "ct",
          "zipcode": 0,
          "street": "st",
          "number": 0
        },
        "foundation": {
          "year": 0,
          "month": 0,
          "day": 0
        },
        "email_addresses": [
          "em1",
          "em2",
          "em3"
        ]
      }
    ]
  },
  {
    "name": "",
    "friends": 1,
    "home_address": {
      "city": "ct",
      "zipcode": 0,
      "street": "st",
      "number": 0
    },
    "birth_place": {
      "city": "ct",
      "zipcode": 0,
      "street": "st",
      "number": 0
    },
    "birth": {
      "year": 0,
      "month": 0,
      "day": 0
    },
    "favorite_subjects": [
      {
        "id": 83,
        "title": "",
        "code": ""
      }
    ],
    "email_addresses": [
      "em addr"
    ],
    "schools": [
      {
        "name": "school",
        "address": {
          "city": "ct",
          "zipcode": 0,
          "street": "st",
          "number": 0
        },
        "foundation": {
          "year": 0,
          "month": 0,
          "day": 0
        },
        "email_addresses": [
          "em1",
          "em2",
          "em3"
        ]
      }
    ]
  },
  {
    "name": "",
    "friends": 1,
    "home_address": {
      "city": "ct",
      "zipcode": 0,
      "street": "st",
      "number": 0
    },
    "birth_place": {
      "city": "ct",
      "zipcode": 0,
      "street": "st",
      "number": 0
    },
    "birth": {
      "year": 0,
      "month": 0,
      "day": 0
    },
    "favorite_subjects": [
      {
        "id": 84,
        "title": "",
        "code": ""
      }
    ],
    "email_addresses": [
      "em addr"
    ],
    "schools": [
      {
        "name": "school",
        "address": {
          "city": "ct",
          "zipcode": 0,
          "street": "st",
          "number": 0
        },
        "foundation": {
          "year": 0,
          "month": 0,
          "day": 0
        },
        "email_addresses": [
          "em1",
          "em2",
          "em3"
        ]
      }
    ]
  },
  {
    "name": "",
    "friends": 1,
    "home_address": {
      "city": "ct",
      "zipcode": 0,
      "street": "st",
      "number": 0
    },
    "birth_place": {
      "city": "ct",
      "zipcode": 0,
      "street": "st",
      "number": 0
    },
    "birth": {
      "year": 0,
      "month": 0,
      "day": 0
    },
    "favorite_subjects": [
      {
        "id": 85,
        "title": "",
        "code": ""
      }
    ],
    "email_addresses": [
      "em addr"
    ],
    "schools": [
      {
        "name": "school",
        "address": {
          "city": "ct",
          "zipcode": 0,
          "street": "st",
          "number": 0
        },
        "foundation": {
          "year": 0,
          "month": 0,
          "day": 0
        },
        "email_addresses": [
          "em1",
          "em2",
          "em3"
        ]
      }
    ]
  },
  {
    "name": "",
    "friends": 1,
    "home_address": {
      "city": "ct",
      "zipcode": 0,
      "street": "st",
      "number": 0
    },
    "birth_place": {
      "city": "ct",
      "zipcode": 0,
      "street": "st",
      "number": 0
    },
    "birth": {
      "year": 0,
      "month": 0,
      "day": 0
    },
    "favorite_subjects": [
      {
        "id": 86,
        "title": "",
        "code": ""
      }
    ],
    "email_addresses": [
      "em addr"
    ],
    "schools": [
      {
        "name": "school",
        "address": {
          "city": "ct",
          "zipcode": 0,
          "street": "st",
          "number": 0
        },
        "foundation": {
          "year": 0,
          "month": 0,
          "day": 0
        },
        "email_addresses": [
          "em1",
          "em2",
          "em3"
        ]
      }
    ]
  },
  {
    "name": "",
    "friends": 1,
    "home_address": {
      "city": "ct",
      "zipcode": 0,
      "street": "st",
      "number": 0
    },
    "birth_place": {
      "city": "ct",
      "zipcode": 0,
      "street": "st",
      "number": 0
    },
    "birth": {
      "year": 0,
      "month": 0,
      "day": 0
    },
    "favorite_subjects": [
      {
        "id": 87,
        "title": "",
        "code": ""
      }
    ],
    "email_addresses": [
      "em addr"
    ],
    "schools": [
      {
        "name": "school",
        "address": {
          "city": "ct",
          "zipcode": 0,
          "street": "st",
          "number": 0
        },
        "foundation": {
          "year": 0,
          "month": 0,
          "day": 0
        },
        "email_addresses": [
          "em1",
          "em2",
          "em3"
        ]
      }
    ]
  },
  {
    "name": "",
    "friends": 1,
    "home_address": {
      "city": "ct",
      "zipcode": 0,
      "street": "st",
      "number": 0
    },
    "birth_place": {
      "city": "ct",
      "zipcode": 0,
      "street": "st",
      "number": 0
    },
    "birth": {
      "year": 0,
      "month": 0,
      "day": 0
    },
    "favorite_subjects": [
      {
        "id": 88,
        "title": "",
        "code": ""
      }
    ],
    "email_addresses": [
      "em addr"
    ],
    "schools": [
      {
        "name": "school",
        "address": {
          "city": "ct",
          "zipcode": 0,
          "street": "st",
          "number": 0
        },
        "foundation": {
          "year": 0,
          "month": 0,
          "day": 0
        },
        "email_addresses": [
          "em1",
          "em2",
          "em3"
        ]
      }
    ]
  },
  {
    "name": "",
    "friends": 1,
    "home_address": {
      "city": "ct",
      "zipcode": 0,
      "street": "st",
      "number": 0
    },
    "birth_place": {
      "city": "ct",
      "zipcode": 0,
      "street": "st",
      "number": 0
    },
    "birth": {
      "year": 0,
      "month": 0,
      "day": 0
    },
    "favorite_subjects": [
      {
        "id": 89,
        "title": "",
        "code": ""
      }
    ],
    "email_addresses": [
      "em addr"
    ],
    "schools": [
      {
        "name": "school",
        "address": {
          "city": "ct",
          "zipcode": 0,
          "street": "st",
          "number": 0
        },
        "foundation": {
          "year": 0,
          "month": 0,
          "day": 0
        },
        "email_addresses": [
          "em1",
          "em2",
          "em3"
        ]
      }
    ]
  },
  {
    "name": "",
    "friends": 1,
    "home_address": {
      "city": "ct",
      "zipcode": 0,
      "street": "st",
      "number": 0
    },
    "birth_place": {
      "city": "ct",
      "zipcode": 0,
      "street": "st",
      "number": 0
    },
    "birth": {
      "year": 0,
      "month": 0,
      "day": 0
    },
    "favorite_subjects": [
      {
        "id": 90,
        "title": "",
        "code": ""
      }
    ],
    "email_addresses": [
      "em addr"
    ],
    "schools": [
      {
        "name": "school",
        "address": {
          "city": "ct",
          "zipcode": 0,
          "street": "st",
          "number": 0
        },
        "foundation": {
          "year": 0,
          "month": 0,
          "day": 0
        },
        "email_addresses": [
          "em1",
          "em2",
          "em3"
        ]
      }
    ]
  },
  {
    "name": "",
    "friends": 1,
    "home_address": {
      "city": "ct",
      "zipcode": 0,
      "street": "st",
      "number": 0
    },
    "birth_place": {
      "city": "ct",
      "zipcode": 0,
      "street": "st",
      "number": 0
    },
    "birth": {
      "year": 0,
      "month": 0,
      "day": 0
    },
    "favorite_subjects": [
      {
        "id": 91,
        "title": "",
        "code": ""
      }
    ],
    "email_addresses": [
      "em addr"
    ],
    "schools": [
      {
        "name": "school",
        "address": {
          "city": "ct",
          "zipcode": 0,
          "street": "st",
          "number": 0
        },
        "foundation": {
          "year": 0,
          "month": 0,
          "day": 0
        },
        "email_addresses": [
          "em1",
          "em2",
          "em3"
        ]
      }
    ]
  },
  {
    "name": "",
    "friends": 1,
    "home_address": {
      "city": "ct",
      "zipcode": 0,
      "street": "st",
      "number": 0
    },
    "birth_place": {
      "city": "ct",
      "zipcode": 0,
      "street": "st",
      "number": 0
    },
    "birth": {
      "year": 0,
      "month": 0,
      "day": 0
    },
    "favorite_subjects": [
      {
        "id": 92,
        "title": "",
        "code": ""
      }
    ],
    "email_addresses": [
      "em addr"
    ],
    "schools": [
      {
        "name": "school",
        "address": {
          "city": "ct",
          "zipcode": 0,
          "street": "st",
          "number": 0
        },
        "foundation": {
          "year": 0,
          "month": 0,
          "day": 0
        },
        "email_addresses": [
          "em1",
          "em2",
          "em3"
        ]
      }
    ]
  },
  {
    "name": "",
    "friends": 1,
    "home_address": {
      "city": "ct",
      "zipcode": 0,
      "street": "st",
      "number": 0
    },
    "birth_place": {
      "city": "ct",
      "zipcode": 0,
      "street": "st",
      "number": 0
    },
    "birth": {
      "year": 0,
      "month": 0,
      "day": 0
    },
    "favorite_subjects": [
      {
        "id": 93,
        "title": "",
        "code": ""
      }
    ],
    "email_addresses": [
      "em addr"
    ],
    "schools": [
      {
        "name": "school",
        "address": {
          "city": "ct",
          "zipcode": 0,
          "street": "st",
          "number": 0
        },
        "foundation": {
          "year": 0,
          "month": 0,
          "day": 0
        },
        "email_addresses": [
          "em1",
          "em2",
          "em3"
        ]
      }
    ]
  },
  {
    "name": "",
    "friends": 1,
    "home_address": {
      "city": "ct",
      "zipcode": 0,
      "street": "st",
      "number": 0
    },
    "birth_place": {
      "city": "ct",
      "zipcode": 0,
      "street": "st",
      "number": 0
    },
    "birth": {
      "year": 0,
      "month": 0,
      "day": 0
    },
    "favorite_subjects": [
      {
        "id": 94,
        "title": "",
        "code": ""
      }
    ],
    "email_addresses": [
      "em addr"
    ],
    "schools": [
      {
        "name": "school",
        "address": {
          "city": "ct",
          "zipcode": 0,
          "street": "st",
          "number": 0
        },
        "foundation": {
          "year": 0,
          "month": 0,
          "day": 0
        },
        "email_addresses": [
          "em1",
          "em2",
          "em3"
        ]
      }
    ]
  },
  {
    "name": "",
    "friends": 1,
    "home_address": {
      "city": "ct",
      "zipcode": 0,
      "street": "st",
      "number": 0
    },
    "birth_place": {
      "city": "ct",
      "zipcode": 0,
      "street": "st",
      "number": 0
    },
    "birth": {
      "year": 0,
      "month": 0,
      "day": 0
    },
    "favorite_subjects": [
      {
        "id": 95,
        "title": "",
        "code": ""
      }
    ],
    "email_addresses": [
      "em addr"
    ],
    "schools": [
      {
        "name": "school",
        "address": {
          "city": "ct",
          "zipcode": 0,
          "street": "st",
          "number": 0
        },
        "foundation": {
          "year": 0,
          "month": 0,
          "day": 0
        },
        "email_addresses": [
          "em1",
          "em2",
          "em3"
        ]
      }
    ]
  },
  {
    "name": "",
    "friends": 1,
    "home_address": {
      "city": "ct",
      "zipcode": 0,
      "street": "st",
      "number": 0
    },
    "birth_place": {
      "city": "ct",
      "zipcode": 0,
      "street": "st",
      "number": 0
    },
    "birth": {
      "year": 0,
      "month": 0,
      "day": 0
    },
    "favorite_subjects": [
      {
        "id": 96,
        "title": "",
        "code": ""
      }
    ],
    "email_addresses": [
      "em addr"
    ],
    "schools": [
      {
        "name": "school",
        "address": {
          "city": "ct",
          "zipcode": 0,
          "street": "st",
          "number": 0
        },
        "foundation": {
          "year": 0,
          "month": 0,
          "day": 0
        },
        "email_addresses": [
          "em1",
          "em2",
          "em3"
        ]
      }
    ]
  },
  {
    "name": "",
    "friends": 1,
    "home_address": {
      "city": "ct",
      "zipcode": 0,
      "street": "st",
      "number": 0
    },
    "birth_place": {
      "city": "ct",
      "zipcode": 0,
      "street": "st",
      "number": 0
    },
    "birth": {
      "year": 0,
      "month": 0,
      "day": 0
    },
    "favorite_subjects": [
      {
        "id": 97,
        "title": "",
        "code": ""
      }
    ],
    "email_addresses": [
      "em addr"
    ],
    "schools": [
      {
        "name": "school",
        "address": {
          "city": "ct",
          "zipcode": 0,
          "street": "st",
          "number": 0
        },
        "foundation": {
          "year": 0,
          "month": 0,
          "day": 0
        },
        "email_addresses": [
          "em1",
          "em2",
          "em3"
        ]
      }
    ]
  },
  {
    "name": "",
    "friends": 1,
    "home_address": {
      "city": "ct",
      "zipcode": 0,
      "street": "st",
      "number": 0
    },
    "birth_place": {
      "city": "ct",
      "zipcode": 0,
      "street": "st",
      "number": 0
    },
    "birth": {
      "year": 0,
      "month": 0,
      "day": 0
    },
    "favorite_subjects": [
      {
        "id": 98,
        "title": "",
        "code": ""
      }
    ],
    "email_addresses": [
      "em addr"
    ],
    "schools": [
      {
        "name": "school",
        "address": {
          "city": "ct",
          "zipcode": 0,
          "street": "st",
          "number": 0
        },
        "foundation": {
          "year": 0,
          "month": 0,
          "day": 0
        },
        "email_addresses": [
          "em1",
          "em2",
          "em3"
        ]
      }
    ]
  },
  {
    "name": "",
    "friends": 1,
    "home_address": {
      "city": "ct",
      "zipcode": 0,
      "street": "st",
      "number": 0
    },
    "birth_place": {
      "city": "ct",
      "zipcode": 0,
      "street": "st",
      "number": 0
    },
    "birth": {
      "year": 0,
      "month": 0,
      "day": 0
    },
    "favorite_subjects": [
      {
        "id": 99,
        "title": "",
        "code": ""
      }
    ],
    "email_addresses": [
      "em addr"
    ],
    "schools": [
      {
        "name": "school",
        "address": {
          "city": "ct",
          "zipcode": 0,
          "street": "st",
          "number": 0
        },
        "foundation": {
          "year": 0,
          "month": 0,
          "day": 0
        },
        "email_addresses": [
          "em1",
          "em2",
          "em3"
        ]
      }
    ]
  },
  {
    "name": "",
    "friends": 1,
    "home_address": {
      "city": "ct",
      "zipcode": 0,
      "street": "st",
      "number": 0
    },
    "birth_place": {
      "city": "ct",
      "zipcode": 0,
      "street": "st",
      "number": 0
    },
    "birth": {
      "year": 0,
      "month": 0,
      "day": 0
    },
    "favorite_subjects": [
      {
        "id": 100,
        "title": "",
        "code": ""
      }
    ],
    "email_addresses": [
      "em addr"
    ],
    "schools": [
      {
        "name": "school",
        "address": {
          "city": "ct",
          "zipcode": 0,
          "street": "st",
          "number": 0
        },
        "foundation": {
          "year": 0,
          "month": 0,
          "day": 0
        },
        "email_addresses": [
          "em1",
          "em2",
          "em3"
        ]
      }
    ]
  }
]